{
  "type": "FeatureCollection",
  "features": [
    {
      "type": "Feature",
      "properties": {
        "norad_id": 66654,
        "name": "JACK E",
        "group": "last-30-days",
        "lat": -74.35332680412066,
        "lon": 78.3776263106899,
        "alt_km": 593.1750767778194,
        "timestamp": "2025-12-26T11:25:43.984508+00:00",
        "meta_object_name": "JACK E",
        "meta_object_id": "2025-274E",
        "meta_epoch": "2025-12-25T18:11:22.632576",
        "meta_mean_motion": 14.9215245,
        "meta_eccentricity": 0.00123974,
        "meta_inclination": 97.7406,
        "meta_ra_of_asc_node": 286.7263,
        "meta_arg_of_pericenter": 206.9936,
        "meta_mean_anomaly": 153.064,
        "meta_ephemeris_type": 0,
        "meta_classification_type": "U",
        "meta_norad_cat_id": 66654,
        "meta_element_set_no": 999,
        "meta_rev_at_epoch": 434,
        "meta_bstar": 0.00032962854,
        "meta_mean_motion_dot": 3.303e-05,
        "meta_mean_motion_ddot": 0,
        "tle_line1": "1 66654U 25274E   25359.75790084  .00003303  00000+0  32963-3 0  9995",
        "tle_line2": "2 66654  97.7406 286.7263 0012397 206.9936 153.0640 14.92152450  4346"
      },
      "geometry": {
        "type": "Point",
        "coordinates": [
          78.3776263106899,
          -74.35332680412066
        ]
      }
    },
    {
      "type": "Feature",
      "properties": {
        "norad_id": 66655,
        "name": "2025-274F",
        "group": "last-30-days",
        "lat": -32.71543405955947,
        "lon": 102.39475629207966,
        "alt_km": 601.9766918452242,
        "timestamp": "2025-12-26T11:25:43.984517+00:00",
        "meta_object_name": "2025-274F",
        "meta_object_id": "2025-274F",
        "meta_epoch": "2025-12-25T18:22:19.797024",
        "meta_mean_motion": 14.91199318,
        "meta_eccentricity": 0.00044552,
        "meta_inclination": 97.7336,
        "meta_ra_of_asc_node": 286.7062,
        "meta_arg_of_pericenter": 336.6899,
        "meta_mean_anomaly": 23.4117,
        "meta_ephemeris_type": 0,
        "meta_classification_type": "U",
        "meta_norad_cat_id": 66655,
        "meta_element_set_no": 999,
        "meta_rev_at_epoch": 434,
        "meta_bstar": 1.0624922e-05,
        "meta_mean_motion_dot": 5.1e-07,
        "meta_mean_motion_ddot": 0,
        "tle_line1": "1 66655U 25274F   25359.76550691  .00000051  00000+0  10625-4 0  9994",
        "tle_line2": "2 66655  97.7336 286.7062 0004455 336.6899  23.4117 14.91199318  4343"
      },
      "geometry": {
        "type": "Point",
        "coordinates": [
          102.39475629207966,
          -32.71543405955947
        ]
      }
    },
    {
      "type": "Feature",
      "properties": {
        "norad_id": 66656,
        "name": "2025-274G",
        "group": "last-30-days",
        "lat": -79.85771066046264,
        "lon": -23.06719456638819,
        "alt_km": 594.8776960475752,
        "timestamp": "2025-12-26T11:25:43.984526+00:00",
        "meta_object_name": "2025-274G",
        "meta_object_id": "2025-274G",
        "meta_epoch": "2025-12-25T16:29:32.162784",
        "meta_mean_motion": 14.92349038,
        "meta_eccentricity": 0.00129558,
        "meta_inclination": 97.7403,
        "meta_ra_of_asc_node": 286.6643,
        "meta_arg_of_pericenter": 209.015,
        "meta_mean_anomaly": 151.035,
        "meta_ephemeris_type": 0,
        "meta_classification_type": "U",
        "meta_norad_cat_id": 66656,
        "meta_element_set_no": 999,
        "meta_rev_at_epoch": 433,
        "meta_bstar": 0.00035890142,
        "meta_mean_motion_dot": 3.62e-05,
        "meta_mean_motion_ddot": 0,
        "tle_line1": "1 66656U 25274G   25359.68717781  .00003620  00000+0  35890-3 0  9996",
        "tle_line2": "2 66656  97.7403 286.6643 0012955 209.0150 151.0350 14.92349038  4333"
      },
      "geometry": {
        "type": "Point",
        "coordinates": [
          -23.06719456638819,
          -79.85771066046264
        ]
      }
    },
    {
      "type": "Feature",
      "properties": {
        "norad_id": 66657,
        "name": "SPIRONE",
        "group": "last-30-days",
        "lat": -63.261690079755056,
        "lon": -56.8902229873845,
        "alt_km": 594.862622545953,
        "timestamp": "2025-12-26T11:25:43.984537+00:00",
        "meta_object_name": "SPIRONE",
        "meta_object_id": "2025-274H",
        "meta_epoch": "2025-12-25T18:01:04.034496",
        "meta_mean_motion": 14.92527899,
        "meta_eccentricity": 0.001096,
        "meta_inclination": 97.74,
        "meta_ra_of_asc_node": 286.734,
        "meta_arg_of_pericenter": 226.2948,
        "meta_mean_anomaly": 133.7364,
        "meta_ephemeris_type": 0,
        "meta_classification_type": "U",
        "meta_norad_cat_id": 66657,
        "meta_element_set_no": 999,
        "meta_rev_at_epoch": 434,
        "meta_bstar": 0.00036151357,
        "meta_mean_motion_dot": 3.661e-05,
        "meta_mean_motion_ddot": 0,
        "tle_line1": "1 66657U 25274H   25359.75074114  .00003661  00000+0  36151-3 0  9997",
        "tle_line2": "2 66657  97.7400 286.7340 0010960 226.2948 133.7364 14.92527899  4342"
      },
      "geometry": {
        "type": "Point",
        "coordinates": [
          -56.8902229873845,
          -63.261690079755056
        ]
      }
    },
    {
      "type": "Feature",
      "properties": {
        "norad_id": 66658,
        "name": "2025-274J",
        "group": "last-30-days",
        "lat": -45.26095352516578,
        "lon": -64.6558584067736,
        "alt_km": 595.8366072645458,
        "timestamp": "2025-12-26T11:25:43.984547+00:00",
        "meta_object_name": "2025-274J",
        "meta_object_id": "2025-274J",
        "meta_epoch": "2025-12-25T17:56:13.034976",
        "meta_mean_motion": 14.927091,
        "meta_eccentricity": 0.00114637,
        "meta_inclination": 97.74,
        "meta_ra_of_asc_node": 286.7386,
        "meta_arg_of_pericenter": 229.5134,
        "meta_mean_anomaly": 130.5087,
        "meta_ephemeris_type": 0,
        "meta_classification_type": "U",
        "meta_norad_cat_id": 66658,
        "meta_element_set_no": 999,
        "meta_rev_at_epoch": 434,
        "meta_bstar": 0.00051472804,
        "meta_mean_motion_dot": 5.263e-05,
        "meta_mean_motion_ddot": 0,
        "tle_line1": "1 66658U 25274J   25359.74737309  .00005263  00000+0  51473-3 0  9993",
        "tle_line2": "2 66658  97.7400 286.7386 0011463 229.5134 130.5087 14.92709100  4349"
      },
      "geometry": {
        "type": "Point",
        "coordinates": [
          -64.6558584067736,
          -45.26095352516578
        ]
      }
    },
    {
      "type": "Feature",
      "properties": {
        "norad_id": 66659,
        "name": "JACK K",
        "group": "last-30-days",
        "lat": -25.861160981996765,
        "lon": -68.75544537181966,
        "alt_km": 596.8342633376242,
        "timestamp": "2025-12-26T11:25:43.984557+00:00",
        "meta_object_name": "JACK K",
        "meta_object_id": "2025-274K",
        "meta_epoch": "2025-12-25T17:51:03.116448",
        "meta_mean_motion": 14.92878978,
        "meta_eccentricity": 0.00122138,
        "meta_inclination": 97.7403,
        "meta_ra_of_asc_node": 286.7439,
        "meta_arg_of_pericenter": 231.5343,
        "meta_mean_anomaly": 128.4781,
        "meta_ephemeris_type": 0,
        "meta_classification_type": "U",
        "meta_norad_cat_id": 66659,
        "meta_element_set_no": 999,
        "meta_rev_at_epoch": 434,
        "meta_bstar": 0.00032013564,
        "meta_mean_motion_dot": 3.265e-05,
        "meta_mean_motion_ddot": 0,
        "tle_line1": "1 66659U 25274K   25359.74378607  .00003265  00000+0  32014-3 0  9996",
        "tle_line2": "2 66659  97.7403 286.7439 0012213 231.5343 128.4781 14.92878978  4348"
      },
      "geometry": {
        "type": "Point",
        "coordinates": [
          -68.75544537181966,
          -25.861160981996765
        ]
      }
    },
    {
      "type": "Feature",
      "properties": {
        "norad_id": 66660,
        "name": "K-HERO",
        "group": "last-30-days",
        "lat": -9.943179434998687,
        "lon": -71.16112884028632,
        "alt_km": 597.2182445617218,
        "timestamp": "2025-12-26T11:25:43.984566+00:00",
        "meta_object_name": "K-HERO",
        "meta_object_id": "2025-274L",
        "meta_epoch": "2025-12-25T19:23:20.955552",
        "meta_mean_motion": 14.93030361,
        "meta_eccentricity": 0.00128508,
        "meta_inclination": 97.7404,
        "meta_ra_of_asc_node": 286.8151,
        "meta_arg_of_pericenter": 232.0966,
        "meta_mean_anomaly": 127.9092,
        "meta_ephemeris_type": 0,
        "meta_classification_type": "U",
        "meta_norad_cat_id": 66660,
        "meta_element_set_no": 999,
        "meta_rev_at_epoch": 435,
        "meta_bstar": 0.00030941954,
        "meta_mean_motion_dot": 3.167e-05,
        "meta_mean_motion_ddot": 0,
        "tle_line1": "1 66660U 25274L   25359.80788143  .00003167  00000+0  30942-3 0  9994",
        "tle_line2": "2 66660  97.7404 286.8151 0012850 232.0966 127.9092 14.93030361  4354"
      },
      "geometry": {
        "type": "Point",
        "coordinates": [
          -71.16112884028632,
          -9.943179434998687
        ]
      }
    }
  ]
}